[{"OBJECT_NAME":"STARLINK-4762","OBJECT_ID":"2022-114BA","EPOCH":"2026-03-09T21:59:59.016192","MEAN_MOTION":15.08837375,"ECCENTRICITY":0.00012423,"INCLINATION":53.2167,"RA_OF_ASC_NODE":263.3096,"ARG_OF_PERICENTER":91.7488,"MEAN_ANOMALY":268.3647,"EPHEMERIS_TYPE":0,"CLASSIFICATION_TYPE":"U","NORAD_CAT_ID":53866,"ELEMENT_SET_NO":999,"REV_AT_EPOCH":19342,"BSTAR":2.9865279e-5,"MEAN_MOTION_DOT":1.87e-6,"MEAN_MOTION_DDOT":0},{"OBJECT_NAME":"ICEYE-X37","OBJECT_ID":"2024-043E","EPOCH":"2026-03-09T21:28:27.980256","MEAN_MOTION":15.05207146,"ECCENTRICITY":0.00148076,"INCLINATION":97.8149,"RA_OF_ASC_NODE":204.4924,"ARG_OF_PERICENTER":351.2295,"MEAN_ANOMALY":8.867,"EPHEMERIS_TYPE":0,"CLASSIFICATION_TYPE":"U","NORAD_CAT_ID":59102,"ELEMENT_SET_NO":999,"REV_AT_EPOCH":11014,"BSTAR":0.00044484532,"MEAN_MOTION_DOT":6.299e-5,"MEAN_MOTION_DDOT":0}]
